GLOBALSTAR M023         
1 25621U 99004A   25271.92847634 -.00000081  00000+0  12875-3 0  9993
2 25621  52.0092  97.5448 0010094   0.8386 145.4323 12.62507178228836
GLOBALSTAR M040         
1 25622U 99004B   25271.52142352 -.00000065  00000+0  21396-3 0  9995
2 25622  51.9901 103.0921 0000115 127.7804 257.2224 12.62018366228300
GLOBALSTAR M036         
1 25623U 99004C   25271.68039343 -.00000028  00000+0  79654-3 0  9997
2 25623  51.9993 327.5357 0010581 247.5032 293.4405 11.86609834191268
GLOBALSTAR M038         
1 25624U 99004D   25271.90851145 -.00000082  00000+0  10522-3 0  9994
2 25624  51.9956 132.8654 0000975 285.0774 181.5515 12.32532660215160
GLOBALSTAR M022         
1 25649U 99012A   25271.66430206 -.00000078  00000+0  10654-3 0  9995
2 25649  52.0077   9.6019 0002659  32.1293 115.8327 12.02502842188826
GLOBALSTAR M041         
1 25650U 99012B   25271.28998174 -.00000073  00000+0  16004-3 0  9998
2 25650  52.0002 255.2157 0001315 150.0444 210.0468 11.96682837190624
GLOBALSTAR M046         
1 25651U 99012C   25271.59465572 -.00000149  00000+0 -66358-3 0  9996
2 25651  52.0065 316.1544 0002289 102.8961  64.3509 12.09412456196176
GLOBALSTAR M037         
1 25652U 99012D   25271.88606620 -.00000074  00000+0  16745-3 0  9991
2 25652  51.9991 228.2554 0002559  55.7188 333.6132 12.62451498224370
